CZ-5B R/B               
1 54217U 22143B   22307.45026049  .04306496  77106-5  57383-3 0  9992
2 54217  41.4743  88.8611 0062797 197.7556 206.2843 16.28127082   504
